{
  "type": "FeatureCollection",
  "features": [
    {
      "type": "Feature",
      "properties": {
        "norad_id": 32376,
        "name": "COSMO-SKYMED 2",
        "group": "resource",
        "lat": -77.60515503316915,
        "lon": -155.58126722195465,
        "alt_km": 630.8855934035037,
        "timestamp": "2025-12-09T23:33:23.505758+00:00",
        "meta_object_name": "COSMO-SKYMED 2",
        "meta_object_id": "2007-059A",
        "meta_epoch": "2025-12-09T14:11:50.794368",
        "meta_mean_motion": 14.82160555,
        "meta_eccentricity": 0.0001534,
        "meta_inclination": 97.8812,
        "meta_ra_of_asc_node": 164.9627,
        "meta_arg_of_pericenter": 85.5631,
        "meta_mean_anomaly": 274.5758,
        "meta_ephemeris_type": 0,
        "meta_classification_type": "U",
        "meta_norad_cat_id": 32376,
        "meta_element_set_no": 999,
        "meta_rev_at_epoch": 97391,
        "meta_bstar": 0.00013416216,
        "meta_mean_motion_dot": 1.016e-05,
        "meta_mean_motion_ddot": 0,
        "tle_line1": "1 32376U 07059A   25343.59156012  .00001016  00000+0  13416-3 0  9993",
        "tle_line2": "2 32376  97.8812 164.9627 0001534  85.5631 274.5758 14.82160555973918"
      },
      "geometry": {
        "type": "Point",
        "coordinates": [
          -155.58126722195465,
          -77.60515503316915
        ]
      }
    },
    {
      "type": "Feature",
      "properties": {
        "norad_id": 32382,
        "name": "RADARSAT-2",
        "group": "resource",
        "lat": 25.381588610652912,
        "lon": -15.496057879788857,
        "alt_km": 790.5410900588367,
        "timestamp": "2025-12-09T23:33:23.505768+00:00",
        "meta_object_name": "RADARSAT-2",
        "meta_object_id": "2007-061A",
        "meta_epoch": "2025-12-09T15:02:25.060416",
        "meta_mean_motion": 14.29986146,
        "meta_eccentricity": 0.00010809,
        "meta_inclination": 98.5795,
        "meta_ra_of_asc_node": 348.2616,
        "meta_arg_of_pericenter": 85.9301,
        "meta_mean_anomaly": 274.2005,
        "meta_ephemeris_type": 0,
        "meta_classification_type": "U",
        "meta_norad_cat_id": 32382,
        "meta_element_set_no": 999,
        "meta_rev_at_epoch": 93886,
        "meta_bstar": 7.5765993e-05,
        "meta_mean_motion_dot": 1.52e-06,
        "meta_mean_motion_ddot": 0,
        "tle_line1": "1 32382U 07061A   25343.62667894  .00000152  00000+0  75766-4 0  9999",
        "tle_line2": "2 32382  98.5795 348.2616 0001080  85.9301 274.2005 14.29986146938862"
      },
      "geometry": {
        "type": "Point",
        "coordinates": [
          -15.496057879788857,
          25.381588610652912
        ]
      }
    },
    {
      "type": "Feature",
      "properties": {
        "norad_id": 32783,
        "name": "CARTOSAT-2A",
        "group": "resource",
        "lat": 82.06215834704999,
        "lon": -66.94837671882475,
        "alt_km": 623.5103971327635,
        "timestamp": "2025-12-09T23:33:23.505782+00:00",
        "meta_object_name": "CARTOSAT-2A",
        "meta_object_id": "2008-021A",
        "meta_epoch": "2025-12-09T15:01:34.540608",
        "meta_mean_motion": 14.78927544,
        "meta_eccentricity": 0.00121808,
        "meta_inclination": 97.7928,
        "meta_ra_of_asc_node": 33.5466,
        "meta_arg_of_pericenter": 14.2927,
        "meta_mean_anomaly": 345.8626,
        "meta_ephemeris_type": 0,
        "meta_classification_type": "U",
        "meta_norad_cat_id": 32783,
        "meta_element_set_no": 999,
        "meta_rev_at_epoch": 95078,
        "meta_bstar": 0.0001708074,
        "meta_mean_motion_dot": 1.211e-05,
        "meta_mean_motion_ddot": 0,
        "tle_line1": "1 32783U 08021A   25343.62609422  .00001211  00000+0  17081-3 0  9996",
        "tle_line2": "2 32783  97.7928  33.5466 0012180  14.2927 345.8626 14.78927544950785"
      },
      "geometry": {
        "type": "Point",
        "coordinates": [
          -66.94837671882475,
          82.06215834704999
        ]
      }
    },
    {
      "type": "Feature",
      "properties": {
        "norad_id": 33320,
        "name": "HUANJING 1A (HJ-1A)",
        "group": "resource",
        "lat": -81.97485173146777,
        "lon": 44.91590146336665,
        "alt_km": 635.3046757384891,
        "timestamp": "2025-12-09T23:33:23.505806+00:00",
        "meta_object_name": "HUANJING 1A (HJ-1A)",
        "meta_object_id": "2008-041A",
        "meta_epoch": "2025-12-09T14:14:14.463744",
        "meta_mean_motion": 14.83375519,
        "meta_eccentricity": 0.00203423,
        "meta_inclination": 97.654,
        "meta_ra_of_asc_node": 332.0228,
        "meta_arg_of_pericenter": 44.316,
        "meta_mean_anomaly": 315.9678,
        "meta_ephemeris_type": 0,
        "meta_classification_type": "U",
        "meta_norad_cat_id": 33320,
        "meta_element_set_no": 999,
        "meta_rev_at_epoch": 93029,
        "meta_bstar": 0.00013610067,
        "meta_mean_motion_dot": 1.069e-05,
        "meta_mean_motion_ddot": 0,
        "tle_line1": "1 33320U 08041A   25343.59322296  .00001069  00000+0  13610-3 0  9998",
        "tle_line2": "2 33320  97.6540 332.0228 0020342  44.3160 315.9678 14.83375519930291"
      },
      "geometry": {
        "type": "Point",
        "coordinates": [
          44.91590146336665,
          -81.97485173146777
        ]
      }
    },
    {
      "type": "Feature",
      "properties": {
        "norad_id": 33321,
        "name": "HUANJING 1B (HJ-1B)",
        "group": "resource",
        "lat": 39.746070050427015,
        "lon": 162.50775288569656,
        "alt_km": 602.1604139445772,
        "timestamp": "2025-12-09T23:33:23.505828+00:00",
        "meta_object_name": "HUANJING 1B (HJ-1B)",
        "meta_object_id": "2008-041B",
        "meta_epoch": "2025-12-09T14:50:03.459840",
        "meta_mean_motion": 14.82808961,
        "meta_eccentricity": 0.00382641,
        "meta_inclination": 97.6399,
        "meta_ra_of_asc_node": 335.7517,
        "meta_arg_of_pericenter": 85.5122,
        "meta_mean_anomaly": 275.0462,
        "meta_ephemeris_type": 0,
        "meta_classification_type": "U",
        "meta_norad_cat_id": 33321,
        "meta_element_set_no": 999,
        "meta_rev_at_epoch": 93031,
        "meta_bstar": 0.0002606067,
        "meta_mean_motion_dot": 2.084e-05,
        "meta_mean_motion_ddot": 0,
        "tle_line1": "1 33321U 08041B   25343.61809560  .00002084  00000+0  26061-3 0  9998",
        "tle_line2": "2 33321  97.6399 335.7517 0038264  85.5122 275.0462 14.82808961930313"
      },
      "geometry": {
        "type": "Point",
        "coordinates": [
          162.50775288569656,
          39.746070050427015
        ]
      }
    },
    {
      "type": "Feature",
      "properties": {
        "norad_id": 33331,
        "name": "GEOEYE 1",
        "group": "resource",
        "lat": -55.214725016114144,
        "lon": 67.16592086455191,
        "alt_km": 682.8426053009744,
        "timestamp": "2025-12-09T23:33:23.505843+00:00",
        "meta_object_name": "GEOEYE 1",
        "meta_object_id": "2008-042A",
        "meta_epoch": "2025-12-09T13:58:31.533888",
        "meta_mean_motion": 14.64806431,
        "meta_eccentricity": 0.00027688,
        "meta_inclination": 98.1256,
        "meta_ra_of_asc_node": 54.9025,
        "meta_arg_of_pericenter": 290.6565,
        "meta_mean_anomaly": 69.4341,
        "meta_ephemeris_type": 0,
        "meta_classification_type": "U",
        "meta_norad_cat_id": 33331,
        "meta_element_set_no": 999,
        "meta_rev_at_epoch": 92239,
        "meta_bstar": 0.00021897079,
        "meta_mean_motion_dot": 1.121e-05,
        "meta_mean_motion_ddot": 0,
        "tle_line1": "1 33331U 08042A   25343.58230942  .00001121  00000+0  21897-3 0  9991",
        "tle_line2": "2 33331  98.1256  54.9025 0002768 290.6565  69.4341 14.64806431922396"
      },
      "geometry": {
        "type": "Point",
        "coordinates": [
          67.16592086455191,
          -55.214725016114144
        ]
      }
    },
    {
      "type": "Feature",
      "properties": {
        "norad_id": 33396,
        "name": "THEOS",
        "group": "resource",
        "lat": -62.84182127465813,
        "lon": -154.97684247559908,
        "alt_km": 832.8846213135585,
        "timestamp": "2025-12-09T23:33:23.505854+00:00",
        "meta_object_name": "THEOS",
        "meta_object_id": "2008-049A",
        "meta_epoch": "2025-12-09T15:38:48.289056",
        "meta_mean_motion": 14.20096494,
        "meta_eccentricity": 0.0001112,
        "meta_inclination": 98.5866,
        "meta_ra_of_asc_node": 41.8323,
        "meta_arg_of_pericenter": 94.462,
        "meta_mean_anomaly": 265.6684,
        "meta_ephemeris_type": 0,
        "meta_classification_type": "U",
        "meta_norad_cat_id": 33396,
        "meta_element_set_no": 999,
        "meta_rev_at_epoch": 89106,
        "meta_bstar": 0.00023328841,
        "meta_mean_motion_dot": 4.54e-06,
        "meta_mean_motion_ddot": 0,
        "tle_line1": "1 33396U 08049A   25343.65194779  .00000454  00000+0  23329-3 0  9994",
        "tle_line2": "2 33396  98.5866  41.8323 0001112  94.4620 265.6684 14.20096494891069"
      },
      "geometry": {
        "type": "Point",
        "coordinates": [
          -154.97684247559908,
          -62.84182127465813
        ]
      }
    }
  ]
}